{
  "type": "FeatureCollection",
  "features": [
    {
      "type": "Feature",
      "properties": {
        "norad_id": 31475,
        "name": "FENGYUN 1C DEB",
        "group": "fengyun-1c-debris",
        "lat": 39.093203681001036,
        "lon": -120.80327601897615,
        "alt_km": 637.7703672326006,
        "timestamp": "2025-12-23T09:49:07.366056+00:00",
        "meta_object_name": "FENGYUN 1C DEB",
        "meta_object_id": "1999-025BVP",
        "meta_epoch": "2025-12-19T10:28:07.826880",
        "meta_mean_motion": 14.38229,
        "meta_eccentricity": 0.0211787,
        "meta_inclination": 98.9397,
        "meta_ra_of_asc_node": 242.4077,
        "meta_arg_of_pericenter": 87.4314,
        "meta_mean_anomaly": 275.1095,
        "meta_ephemeris_type": 0,
        "meta_classification_type": "U",
        "meta_norad_cat_id": 31475,
        "meta_element_set_no": 999,
        "meta_rev_at_epoch": 96175,
        "meta_bstar": 0.000435,
        "meta_mean_motion_dot": 1.661e-05,
        "meta_mean_motion_ddot": 0,
        "tle_line1": "1 31475U 99025BVP 25353.43620170  .00001661  00000+0  43500-3 0  9994",
        "tle_line2": "2 31475  98.9397 242.4077 0211787  87.4314 275.1095 14.38229000961752"
      },
      "geometry": {
        "type": "Point",
        "coordinates": [
          -120.80327601897615,
          39.093203681001036
        ]
      }
    },
    {
      "type": "Feature",
      "properties": {
        "norad_id": 31476,
        "name": "FENGYUN 1C DEB",
        "group": "fengyun-1c-debris",
        "lat": -59.19978809578521,
        "lon": 86.23915175045872,
        "alt_km": 860.2574873221356,
        "timestamp": "2025-12-23T09:49:07.366066+00:00",
        "meta_object_name": "FENGYUN 1C DEB",
        "meta_object_id": "1999-025BVQ",
        "meta_epoch": "2025-12-22T22:17:07.567584",
        "meta_mean_motion": 14.22165971,
        "meta_eccentricity": 0.00529738,
        "meta_inclination": 98.8976,
        "meta_ra_of_asc_node": 70.519,
        "meta_arg_of_pericenter": 143.7404,
        "meta_mean_anomaly": 216.7382,
        "meta_ephemeris_type": 0,
        "meta_classification_type": "U",
        "meta_norad_cat_id": 31476,
        "meta_element_set_no": 999,
        "meta_rev_at_epoch": 95844,
        "meta_bstar": 0.0015526852,
        "meta_mean_motion_dot": 3.447e-05,
        "meta_mean_motion_ddot": 0,
        "tle_line1": "1 31476U 99025BVQ 25356.92855981  .00003447  00000+0  15527-2 0  9993",
        "tle_line2": "2 31476  98.8976  70.5190 0052973 143.7404 216.7382 14.22165971958448"
      },
      "geometry": {
        "type": "Point",
        "coordinates": [
          86.23915175045872,
          -59.19978809578521
        ]
      }
    },
    {
      "type": "Feature",
      "properties": {
        "norad_id": 31477,
        "name": "FENGYUN 1C DEB",
        "group": "fengyun-1c-debris",
        "lat": 27.718983902478566,
        "lon": -17.855741655830005,
        "alt_km": 812.4901070668166,
        "timestamp": "2025-12-23T09:49:07.366076+00:00",
        "meta_object_name": "FENGYUN 1C DEB",
        "meta_object_id": "1999-025BVR",
        "meta_epoch": "2025-12-21T16:36:32.607648",
        "meta_mean_motion": 14.02932695,
        "meta_eccentricity": 0.01097377,
        "meta_inclination": 98.8867,
        "meta_ra_of_asc_node": 345.1835,
        "meta_arg_of_pericenter": 3.963,
        "meta_mean_anomaly": 356.2381,
        "meta_ephemeris_type": 0,
        "meta_classification_type": "U",
        "meta_norad_cat_id": 31477,
        "meta_element_set_no": 999,
        "meta_rev_at_epoch": 95529,
        "meta_bstar": 0.0003679427,
        "meta_mean_motion_dot": 5.58e-06,
        "meta_mean_motion_ddot": 0,
        "tle_line1": "1 31477U 99025BVR 25355.69204407  .00000558  00000+0  36794-3 0  9998",
        "tle_line2": "2 31477  98.8867 345.1835 0109737   3.9630 356.2381 14.02932695955296"
      },
      "geometry": {
        "type": "Point",
        "coordinates": [
          -17.855741655830005,
          27.718983902478566
        ]
      }
    },
    {
      "type": "Feature",
      "properties": {
        "norad_id": 31480,
        "name": "FENGYUN 1C DEB",
        "group": "fengyun-1c-debris",
        "lat": -77.07745905971912,
        "lon": -112.77499423461875,
        "alt_km": 919.5905834103951,
        "timestamp": "2025-12-23T09:49:07.366088+00:00",
        "meta_object_name": "FENGYUN 1C DEB",
        "meta_object_id": "1999-025BVU",
        "meta_epoch": "2025-12-21T13:18:00.633600",
        "meta_mean_motion": 13.9000478,
        "meta_eccentricity": 0.0344025,
        "meta_inclination": 98.3376,
        "meta_ra_of_asc_node": 205.8309,
        "meta_arg_of_pericenter": 196.8219,
        "meta_mean_anomaly": 162.1301,
        "meta_ephemeris_type": 0,
        "meta_classification_type": "U",
        "meta_norad_cat_id": 31480,
        "meta_element_set_no": 999,
        "meta_rev_at_epoch": 93518,
        "meta_bstar": 0.0016509,
        "meta_mean_motion_dot": 3.244e-05,
        "meta_mean_motion_ddot": 0,
        "tle_line1": "1 31480U 99025BVU 25355.55417400  .00003244  00000+0  16509-2 0  9992",
        "tle_line2": "2 31480  98.3376 205.8309 0344025 196.8219 162.1301 13.90004780935187"
      },
      "geometry": {
        "type": "Point",
        "coordinates": [
          -112.77499423461875,
          -77.07745905971912
        ]
      }
    },
    {
      "type": "Feature",
      "properties": {
        "norad_id": 31482,
        "name": "FENGYUN 1C DEB",
        "group": "fengyun-1c-debris",
        "lat": -62.03059187743432,
        "lon": 17.08759996765899,
        "alt_km": 736.0598369359905,
        "timestamp": "2025-12-23T09:49:07.366099+00:00",
        "meta_object_name": "FENGYUN 1C DEB",
        "meta_object_id": "1999-025BVW",
        "meta_epoch": "2025-12-20T20:47:08.054880",
        "meta_mean_motion": 14.35688354,
        "meta_eccentricity": 0.0088742,
        "meta_inclination": 98.3819,
        "meta_ra_of_asc_node": 358.4957,
        "meta_arg_of_pericenter": 257.7601,
        "meta_mean_anomaly": 222.2103,
        "meta_ephemeris_type": 0,
        "meta_classification_type": "U",
        "meta_norad_cat_id": 31482,
        "meta_element_set_no": 999,
        "meta_rev_at_epoch": 97246,
        "meta_bstar": 0.00047661,
        "meta_mean_motion_dot": 1.395e-05,
        "meta_mean_motion_ddot": 0,
        "tle_line1": "1 31482U 99025BVW 25354.86606545  .00001395  00000+0  47661-3 0  9996",
        "tle_line2": "2 31482  98.3819 358.4957 0088742 257.7601 222.2103 14.35688354972463"
      },
      "geometry": {
        "type": "Point",
        "coordinates": [
          17.08759996765899,
          -62.03059187743432
        ]
      }
    },
    {
      "type": "Feature",
      "properties": {
        "norad_id": 31483,
        "name": "FENGYUN 1C DEB",
        "group": "fengyun-1c-debris",
        "lat": 60.215194718861014,
        "lon": 154.74987807257807,
        "alt_km": 812.5835072339414,
        "timestamp": "2025-12-23T09:49:07.366109+00:00",
        "meta_object_name": "FENGYUN 1C DEB",
        "meta_object_id": "1999-025BVX",
        "meta_epoch": "2025-12-21T20:05:30.367392",
        "meta_mean_motion": 14.1612276,
        "meta_eccentricity": 0.01180594,
        "meta_inclination": 102.5048,
        "meta_ra_of_asc_node": 309.7374,
        "meta_arg_of_pericenter": 198.2838,
        "meta_mean_anomaly": 190.1944,
        "meta_ephemeris_type": 0,
        "meta_classification_type": "U",
        "meta_norad_cat_id": 31483,
        "meta_element_set_no": 999,
        "meta_rev_at_epoch": 94835,
        "meta_bstar": 0.0019131565,
        "meta_mean_motion_dot": 3.975e-05,
        "meta_mean_motion_ddot": 0,
        "tle_line1": "1 31483U 99025BVX 25355.83715703  .00003975  00000+0  19132-2 0  9999",
        "tle_line2": "2 31483 102.5048 309.7374 0118059 198.2838 190.1944 14.16122760948354"
      },
      "geometry": {
        "type": "Point",
        "coordinates": [
          154.74987807257807,
          60.215194718861014
        ]
      }
    },
    {
      "type": "Feature",
      "properties": {
        "norad_id": 31484,
        "name": "FENGYUN 1C DEB",
        "group": "fengyun-1c-debris",
        "lat": 22.653408748821136,
        "lon": -66.96632916068064,
        "alt_km": 732.1178835575738,
        "timestamp": "2025-12-23T09:49:07.366121+00:00",
        "meta_object_name": "FENGYUN 1C DEB",
        "meta_object_id": "1999-025BVY",
        "meta_epoch": "2025-12-16T07:12:51.694848",
        "meta_mean_motion": 14.50535761,
        "meta_eccentricity": 0.00830802,
        "meta_inclination": 101.8044,
        "meta_ra_of_asc_node": 288.1065,
        "meta_arg_of_pericenter": 142.1117,
        "meta_mean_anomaly": 218.595,
        "meta_ephemeris_type": 0,
        "meta_classification_type": "U",
        "meta_norad_cat_id": 31484,
        "meta_element_set_no": 999,
        "meta_rev_at_epoch": 64289,
        "meta_bstar": 0.003456044,
        "meta_mean_motion_dot": 0.00014104,
        "meta_mean_motion_ddot": 0,
        "tle_line1": "1 31484U 99025BVY 25350.30059832  .00014104  00000+0  34560-2 0  9999",
        "tle_line2": "2 31484 101.8044 288.1065 0083080 142.1117 218.5950 14.50535761642892"
      },
      "geometry": {
        "type": "Point",
        "coordinates": [
          -66.96632916068064,
          22.653408748821136
        ]
      }
    }
  ]
}